QZS-4 (MICHIBIKI-4)     
1 42965U 17062A   26190.74072012 -.00000315  00000+0  00000+0 0  9991
2 42965  40.0954 343.1995 0747415 268.4439  81.4735  1.00291716 32020
BEIDOU-3 G1             
1 43683U 18085A   26191.24216366 -.00000101  00000+0  00000+0 0  9996
2 43683   2.9232  96.7668 0008198 355.1748  83.3480  1.00272939 28295
EUTELSAT 5 WEST B       
1 44624U 19067A   26191.33308481 -.00000032  00000+0  00000+0 0  9996
2 44624   0.0633 347.2780 0003030 124.0531 291.8313  1.00271316 24663
BEIDOU-3 G2             
1 45344U 20017A   26191.15500763 -.00000132  00000+0  00000+0 0  9991
2 45344   2.9077  47.6544 0002190  57.6305 318.6618  1.00269930 23496
BEIDOU-3 G3             
1 45807U 20040A   26191.30363164 -.00000345  00000+0  00000+0 0  9996
2 45807   2.5003  67.4792 0001852 329.9731 110.5737  1.00266611 22305
GALAXY 30 (G-30)        
1 46114U 20056C   26191.25700475  .00000000  00000+0  00000+0 0  9996
2 46114   0.0256  34.1445 0001938  79.9597 141.5979  1.00270345 21527
QZS-1R (MICHIBIKI-1R)   
1 49336U 21096A   26190.59313258 -.00000279  00000+0  00000+0 0  9994
2 49336  37.5047  79.2525 0754958 272.1428 281.8869  1.00247254 17237
QZS-6 (MICHIBIKI-6)     
1 62876U 25023A   26191.29955829 -.00000222  00000+0  00000+0 0  9994
2 62876   0.0230 313.9351 0001819 176.0231 356.5979  1.00268414  5184
